ONEWEB-0220             
1 48232U 21031Y   23304.55494687  .00000249  00000+0  63827-3 0  9999
2 48232  87.8939 120.7418 0001545 103.6422 256.4880 13.14502561122333
ONEWEB-0165             
1 48233U 21031Z   23304.58454819 -.00000036  00000+0 -13225-3 0  9999
2 48233  87.8937 120.7466 0001403  95.4032 264.7258 13.14501769122298
ONEWEB-0199             
1 48234U 21031AA  23304.56762942  .00000210  00000+0  53104-3 0  9999
2 48234  87.8938 120.7215 0001435  94.1046 266.0248 13.14504274122195
ONEWEB-0203             
1 48235U 21031AB  23304.55705224 -.00001266  00000+0 -34504-2 0  9995
2 48235  87.8935 120.7230 0001738  73.6793 286.4528 13.14512175122205
ONEWEB-0197             
1 48236U 21031AC  23304.54416995 -.00001835  00000+0 -49844-2 0  9994
2 48236  87.8936 120.7340 0001783  89.6603 270.4731 13.14502710122119
ONEWEB-0194             
1 48237U 21031AD  23304.51264577 -.00000263  00000+0 -74370-3 0  9996
2 48237  87.8938 120.7298 0001651  75.3565 284.7748 13.14501680122286
ONEWEB-0193             
1 48238U 21031AE  23304.52956244 -.00000138  00000+0 -40733-3 0  9994
2 48238  87.8937 120.7356 0001378  88.9742 271.1545 13.14507430122233
ONEWEB-0191             
1 48239U 21031AF  23304.38789829 -.00000023  00000+0 -96043-4 0  9991
2 48239  87.8945 120.7473 0001507  83.9788 276.1513 13.14505204122071
